ONEWEB-0012             
1 44057U 19010A   25355.49627082 -.00000089  00000+0 -26551-3 0  9999
2 44057  87.9032 264.1717 0001996  82.6674 277.4684 13.16594192328188
ONEWEB-0010             
1 44058U 19010B   25355.44561470  .00000082  00000+0  17978-3 0  9997
2 44058  87.9046 264.1721 0001681  60.4087 299.7212 13.16592528328222
ONEWEB-0008             
1 44059U 19010C   25355.47094106 -.00000010  00000+0 -60795-4 0  9997
2 44059  87.9046 264.1645 0001534  79.6200 280.5103 13.16592543328341
ONEWEB-0007             
1 44060U 19010D   25355.36490077  .00000106  00000+0  24818-3 0  9993
2 44060  87.9001 294.7116 0002096  71.9864 288.1495 13.15548164327998
ONEWEB-0006             
1 44061U 19010E   25355.36885631  .00000163  00000+0  39961-3 0  9996
2 44061  87.9009 294.6580 0001861  70.6221 289.5110 13.15547666328045
ONEWEB-0011             
1 44062U 19010F   25355.33716123 -.00000073  00000+0 -22780-3 0  9996
2 44062  87.9001 294.6737 0001621  74.8530 285.2780 13.15550393328031
ONEWEB-0013             
1 45131U 20008A   25355.51381090 -.00000433  00000+0 -12931-2 0  9990
2 45131  87.8511  88.7141 0002632 110.5442 249.5968 13.09438522282816
ONEWEB-0017             
1 45132U 20008B   25355.46852826 -.00000502  00000+0 -14745-2 0  9997
2 45132  87.8796  71.7035 0001545  97.5483 262.5820 13.10370474284678
